IRIDIUM 159             
1 43578U 18061K   24196.49771271 -.00000031  00000+0 -18123-4 0  9997
2 43578  86.3983 350.3643 0001791  94.1450 265.9951 14.34217406312668
IRIDIUM 180             
1 43922U 19002A   24196.49720967  .00000023  00000+0  10907-5 0  9994
2 43922  86.3965 287.2440 0002139  99.1254 261.0184 14.34216486288279
IRIDIUM 176             
1 43923U 19002B   24196.50885689  .00001842  00000+0  28809-3 0  9998
2 43923  86.6093 287.2590 0002151  94.2941 265.8522 14.72264038295863
IRIDIUM 168             
1 43924U 19002C   24196.49086743  .00000109  00000+0  31825-4 0  9999
2 43924  86.3968 287.3044 0002135  93.6386 266.5054 14.34218009288253
IRIDIUM 173             
1 43925U 19002D   24196.61771900  .00000192  00000+0  61618-4 0  9995
2 43925  86.3965 287.1689 0002097  94.9349 265.2086 14.34218237288258
IRIDIUM 169             
1 43926U 19002E   24196.39120594  .00000063  00000+0  14209-4 0  9999
2 43926  86.4245 318.8922 0003785 119.9134 240.2441 14.38604688289182
IRIDIUM 172             
1 43927U 19002F   24196.61135695  .00000215  00000+0  69567-4 0  9999
2 43927  86.3966 287.1774 0002259  92.3061 267.8393 14.34213182288263
IRIDIUM 175             
1 43928U 19002G   24196.57118905  .00001565  00000+0  24419-3 0  9995
2 43928  86.1494 258.8255 0002346 100.8965 259.2515 14.72253683295869
